FENGYUN 1C DEB          
1 31047U 99025BER 26109.76038825  .00000444  00000+0  25500-3 0  9993
2 31047  98.7077 108.8484 0025764 171.9895   8.1171 14.14069236981688
FENGYUN 1C DEB          
1 31051U 99025BEV 26108.34248982 -.00000016  00000+0  16717-4 0  9995
2 31051  98.8003 139.8699 0053810 141.0626 219.4435 14.03144055655946
FENGYUN 1C DEB          
1 31053U 99025BEX 26115.27742954  .00001727  00000+0  12720-2 0  9992
2 31053  98.8053 232.8855 0307301  97.6264 265.9900 13.76564300953135
FENGYUN 1C DEB          
1 31054U 99025BEY 26115.55384772  .00000193  00000+0  12802-3 0  9992
2 31054  98.6848 129.4838 0011029 101.4963  28.6896 14.12256138986522
FENGYUN 1C DEB          
1 31055U 99025BEZ 26115.32742105  .00000431  00000+0  26533-3 0  9997
2 31055  98.7417 148.0074 0023603 252.3659 170.2584 14.10543149980053
FENGYUN 1C DEB          
1 31056U 99025BFA 26114.41464853  .00000429  00000+0  24535-3 0  9995
2 31056  98.6841  98.1886 0024974 324.1947 190.6765 14.14503609986931
FENGYUN 1C DEB          
1 31057U 99025BFB 26114.43235991  .00005078  00000+0  56321-3 0  9990
2 31057  99.2353 178.9868 0133732 196.9066 162.7665 14.81502336639163
FENGYUN 1C DEB          
1 31058U 99025BFC 26112.66755673  .00006710  00000+0  85147-3 0  9990
2 31058  99.5819  91.4074 0090635  63.7211 297.3273 14.79241808 14279
FENGYUN 1C DEB          
1 31062U 99025BFG 26115.45232719  .00000192  00000+0  21742-3 0  9995
2 31062  99.0063 295.5259 0170834 323.1919  64.6446 13.75765847960726
FENGYUN 1C DEB          
1 31064U 99025BFJ 26115.20813955  .00000692  00000+0  24811-3 0  9992
2 31064  98.5900  99.5071 0240141 333.8249  88.6183 14.22393692991523
FENGYUN 1C DEB          
1 31065U 99025BFK 26115.32876111  .00001632  00000+0  66046-3 0  9990
2 31065  98.4556 135.4065 0034067 359.6874   0.4281 14.28788953664859
FENGYUN 1C DEB          
1 31068U 99025BFN 26114.23268861  .00000379  00000+0  21210-3 0  9990
2 31068  98.6462  96.0388 0165747 102.3218 259.6563 14.09316607982211
FENGYUN 1C DEB          
1 31069U 99025BFP 26110.31735173  .00001799  00000+0  37444-3 0  9994
2 31069  99.1126 287.6543 0102622  48.7604 312.2379 14.58222174  5554
FENGYUN 1C DEB          
1 31071U 99025BFR 26109.51290766  .00002748  00000+0  65392-3 0  9999
2 31071  99.0285 202.1496 0054275 256.2041 103.3109 14.53859990673505
FENGYUN 1C DEB          
1 31072U 99025BFS 26115.30006976  .00001802  00000+0  61613-3 0  9994
2 31072  99.3275 134.3594 0209470  76.4681 285.9739 14.26069254985467
FENGYUN 1C DEB          
1 31073U 99025BFT 26115.56802500  .00001849  00000+0  79459-3 0  9998
2 31073  99.2116 336.9918 0042476 261.5810  98.0551 14.25566037989899
