[{"OBJECT_NAME":"FENGYUN 1C DEB","OBJECT_ID":"1999-025BER","EPOCH":"2026-04-19T18:14:57.544800","MEAN_MOTION":14.14069236,"ECCENTRICITY":0.00257642,"INCLINATION":98.7077,"RA_OF_ASC_NODE":108.8484,"ARG_OF_PERICENTER":171.9895,"MEAN_ANOMALY":8.1171,"EPHEMERIS_TYPE":0,"CLASSIFICATION_TYPE":"U","NORAD_CAT_ID":31047,"ELEMENT_SET_NO":999,"REV_AT_EPOCH":98168,"BSTAR":0.00025499841,"MEAN_MOTION_DOT":4.44e-6,"MEAN_MOTION_DDOT":0},{"OBJECT_NAME":"FENGYUN 1C DEB","OBJECT_ID":"1999-025BEV","EPOCH":"2026-04-18T08:13:11.120448","MEAN_MOTION":14.03144055,"ECCENTRICITY":0.00538108,"INCLINATION":98.8003,"RA_OF_ASC_NODE":139.8699,"ARG_OF_PERICENTER":141.0626,"MEAN_ANOMALY":219.4435,"EPHEMERIS_TYPE":0,"CLASSIFICATION_TYPE":"U","NORAD_CAT_ID":31051,"ELEMENT_SET_NO":999,"REV_AT_EPOCH":65594,"BSTAR":1.6717219e-5,"MEAN_MOTION_DOT":-1.6e-7,"MEAN_MOTION_DDOT":0},{"OBJECT_NAME":"FENGYUN 1C DEB","OBJECT_ID":"1999-025BEX","EPOCH":"2026-04-25T06:39:29.912256","MEAN_MOTION":13.765643,"ECCENTRICITY":0.0307301,"INCLINATION":98.8053,"RA_OF_ASC_NODE":232.8855,"ARG_OF_PERICENTER":97.6264,"MEAN_ANOMALY":265.99,"EPHEMERIS_TYPE":0,"CLASSIFICATION_TYPE":"U","NORAD_CAT_ID":31053,"ELEMENT_SET_NO":999,"REV_AT_EPOCH":95313,"BSTAR":0.001272,"MEAN_MOTION_DOT":1.727e-5,"MEAN_MOTION_DDOT":0},{"OBJECT_NAME":"FENGYUN 1C DEB","OBJECT_ID":"1999-025BEY","EPOCH":"2026-04-25T13:17:32.443008","MEAN_MOTION":14.12256138,"ECCENTRICITY":0.0011029,"INCLINATION":98.6848,"RA_OF_ASC_NODE":129.4838,"ARG_OF_PERICENTER":101.4963,"MEAN_ANOMALY":28.6896,"EPHEMERIS_TYPE":0,"CLASSIFICATION_TYPE":"U","NORAD_CAT_ID":31054,"ELEMENT_SET_NO":999,"REV_AT_EPOCH":98652,"BSTAR":0.00012802,"MEAN_MOTION_DOT":1.93e-6,"MEAN_MOTION_DDOT":0},{"OBJECT_NAME":"FENGYUN 1C DEB","OBJECT_ID":"1999-025BEZ","EPOCH":"2026-04-25T07:51:29.178720","MEAN_MOTION":14.10543149,"ECCENTRICITY":0.0023603,"INCLINATION":98.7417,"RA_OF_ASC_NODE":148.0074,"ARG_OF_PERICENTER":252.3659,"MEAN_ANOMALY":170.2584,"EPHEMERIS_TYPE":0,"CLASSIFICATION_TYPE":"U","NORAD_CAT_ID":31055,"ELEMENT_SET_NO":999,"REV_AT_EPOCH":98005,"BSTAR":0.00026533,"MEAN_MOTION_DOT":4.31e-6,"MEAN_MOTION_DDOT":0},{"OBJECT_NAME":"FENGYUN 1C DEB","OBJECT_ID":"1999-025BFA","EPOCH":"2026-04-24T09:57:05.632992","MEAN_MOTION":14.14503609,"ECCENTRICITY":0.0024974,"INCLINATION":98.6841,"RA_OF_ASC_NODE":98.1886,"ARG_OF_PERICENTER":324.1947,"MEAN_ANOMALY":190.6765,"EPHEMERIS_TYPE":0,"CLASSIFICATION_TYPE":"U","NORAD_CAT_ID":31056,"ELEMENT_SET_NO":999,"REV_AT_EPOCH":98693,"BSTAR":0.00024535363,"MEAN_MOTION_DOT":4.29e-6,"MEAN_MOTION_DDOT":0},{"OBJECT_NAME":"FENGYUN 1C DEB","OBJECT_ID":"1999-025BFB","EPOCH":"2026-04-24T10:22:35.896224","MEAN_MOTION":14.81502336,"ECCENTRICITY":0.01337326,"INCLINATION":99.2353,"RA_OF_ASC_NODE":178.9868,"ARG_OF_PERICENTER":196.9066,"MEAN_ANOMALY":162.7665,"EPHEMERIS_TYPE":0,"CLASSIFICATION_TYPE":"U","NORAD_CAT_ID":31057,"ELEMENT_SET_NO":999,"REV_AT_EPOCH":63916,"BSTAR":0.00056320565,"MEAN_MOTION_DOT":5.078e-5,"MEAN_MOTION_DDOT":0},{"OBJECT_NAME":"FENGYUN 1C DEB","OBJECT_ID":"1999-025BFC","EPOCH":"2026-04-22T16:01:16.901472","MEAN_MOTION":14.79241808,"ECCENTRICITY":0.00906356,"INCLINATION":99.5819,"RA_OF_ASC_NODE":91.4074,"ARG_OF_PERICENTER":63.7211,"MEAN_ANOMALY":297.3273,"EPHEMERIS_TYPE":0,"CLASSIFICATION_TYPE":"U","NORAD_CAT_ID":31058,"ELEMENT_SET_NO":999,"REV_AT_EPOCH":1427,"BSTAR":0.00085147479,"MEAN_MOTION_DOT":6.71e-5,"MEAN_MOTION_DDOT":0},{"OBJECT_NAME":"FENGYUN 1C DEB","OBJECT_ID":"1999-025BFG","EPOCH":"2026-04-25T10:51:21.069216","MEAN_MOTION":13.75765847,"ECCENTRICITY":0.0170834,"INCLINATION":99.0063,"RA_OF_ASC_NODE":295.5259,"ARG_OF_PERICENTER":323.1919,"MEAN_ANOMALY":64.6446,"EPHEMERIS_TYPE":0,"CLASSIFICATION_TYPE":"U","NORAD_CAT_ID":31062,"ELEMENT_SET_NO":999,"REV_AT_EPOCH":96072,"BSTAR":0.00021742,"MEAN_MOTION_DOT":1.92e-6,"MEAN_MOTION_DDOT":0},{"OBJECT_NAME":"FENGYUN 1C DEB","OBJECT_ID":"1999-025BFJ","EPOCH":"2026-04-25T04:59:43.257120","MEAN_MOTION":14.22393692,"ECCENTRICITY":0.02401413,"INCLINATION":98.59,"RA_OF_ASC_NODE":99.5071,"ARG_OF_PERICENTER":333.8249,"MEAN_ANOMALY":88.6183,"EPHEMERIS_TYPE":0,"CLASSIFICATION_TYPE":"U","NORAD_CAT_ID":31064,"ELEMENT_SET_NO":999,"REV_AT_EPOCH":99152,"BSTAR":0.00024810766,"MEAN_MOTION_DOT":6.92e-6,"MEAN_MOTION_DDOT":0},{"OBJECT_NAME":"FENGYUN 1C DEB","OBJECT_ID":"1999-025BFK","EPOCH":"2026-04-25T07:53:24.959904","MEAN_MOTION":14.28788953,"ECCENTRICITY":0.0034067,"INCLINATION":98.4556,"RA_OF_ASC_NODE":135.4065,"ARG_OF_PERICENTER":359.6874,"MEAN_ANOMALY":0.4281,"EPHEMERIS_TYPE":0,"CLASSIFICATION_TYPE":"U","NORAD_CAT_ID":31065,"ELEMENT_SET_NO":999,"REV_AT_EPOCH":66485,"BSTAR":0.00066046,"MEAN_MOTION_DOT":1.632e-5,"MEAN_MOTION_DDOT":0},{"OBJECT_NAME":"FENGYUN 1C DEB","OBJECT_ID":"1999-025BFN","EPOCH":"2026-04-24T05:35:04.295904","MEAN_MOTION":14.09316607,"ECCENTRICITY":0.01657473,"INCLINATION":98.6462,"RA_OF_ASC_NODE":96.0388,"ARG_OF_PERICENTER":102.3218,"MEAN_ANOMALY":259.6563,"EPHEMERIS_TYPE":0,"CLASSIFICATION_TYPE":"U","NORAD_CAT_ID":31068,"ELEMENT_SET_NO":999,"REV_AT_EPOCH":98221,"BSTAR":0.00021210361,"MEAN_MOTION_DOT":3.79e-6,"MEAN_MOTION_DDOT":0},{"OBJECT_NAME":"FENGYUN 1C DEB","OBJECT_ID":"1999-025BFP","EPOCH":"2026-04-20T07:36:59.189472","MEAN_MOTION":14.58222174,"ECCENTRICITY":0.0102622,"INCLINATION":99.1126,"RA_OF_ASC_NODE":287.6543,"ARG_OF_PERICENTER":48.7604,"MEAN_ANOMALY":312.2379,"EPHEMERIS_TYPE":0,"CLASSIFICATION_TYPE":"U","NORAD_CAT_ID":31069,"ELEMENT_SET_NO":999,"REV_AT_EPOCH":555,"BSTAR":0.00037443861,"MEAN_MOTION_DOT":1.799e-5,"MEAN_MOTION_DDOT":0},{"OBJECT_NAME":"FENGYUN 1C DEB","OBJECT_ID":"1999-025BFR","EPOCH":"2026-04-19T12:18:35.221824","MEAN_MOTION":14.5385999,"ECCENTRICITY":0.00542757,"INCLINATION":99.0285,"RA_OF_ASC_NODE":202.1496,"ARG_OF_PERICENTER":256.2041,"MEAN_ANOMALY":103.3109,"EPHEMERIS_TYPE":0,"CLASSIFICATION_TYPE":"U","NORAD_CAT_ID":31071,"ELEMENT_SET_NO":999,"REV_AT_EPOCH":67350,"BSTAR":0.00065391901,"MEAN_MOTION_DOT":2.748e-5,"MEAN_MOTION_DDOT":0},{"OBJECT_NAME":"FENGYUN 1C DEB","OBJECT_ID":"1999-025BFS","EPOCH":"2026-04-25T07:12:06.027264","MEAN_MOTION":14.26069254,"ECCENTRICITY":0.020947,"INCLINATION":99.3275,"RA_OF_ASC_NODE":134.3594,"ARG_OF_PERICENTER":76.4681,"MEAN_ANOMALY":285.9739,"EPHEMERIS_TYPE":0,"CLASSIFICATION_TYPE":"U","NORAD_CAT_ID":31072,"ELEMENT_SET_NO":999,"REV_AT_EPOCH":98546,"BSTAR":0.00061613,"MEAN_MOTION_DOT":1.802e-5,"MEAN_MOTION_DDOT":0},{"OBJECT_NAME":"FENGYUN 1C DEB","OBJECT_ID":"1999-025BFT","EPOCH":"2026-04-25T13:37:57.360000","MEAN_MOTION":14.25566037,"ECCENTRICITY":0.0042476,"INCLINATION":99.2116,"RA_OF_ASC_NODE":336.9918,"ARG_OF_PERICENTER":261.581,"MEAN_ANOMALY":98.0551,"EPHEMERIS_TYPE":0,"CLASSIFICATION_TYPE":"U","NORAD_CAT_ID":31073,"ELEMENT_SET_NO":999,"REV_AT_EPOCH":98989,"BSTAR":0.00079459,"MEAN_MOTION_DOT":1.849e-5,"MEAN_MOTION_DDOT":0}]
